NORAD_CAT_ID,OBJECT_NAME,OBJECT_TYPE,EPOCH,MEAN_MOTION,ECCENTRICITY,INCLINATION,RA_OF_ASC_NODE,ARG_OF_PERICENTER,MEAN_ANOMALY,BSTAR,MEAN_MOTION_DOT,MEAN_MOTION_DDOT,TLE_LINE0,TLE_LINE1,TLE_LINE2,SEMIMAJOR_AXIS,PERIOD,APOGEE,PERIGEE,DECAYED
55639.0,STARLINK-5508,PAYLOAD,2023-09-11 21:38:13,14.98335031,0.0003444,70.0006,318.3627,270.92,89.1565,-5.5923e-05,-7.6e-06,0.0,0 STARLINK-5508,1 55639U 23021M   23254.90154869 -.00000760  00000-0 -55923-4 0  9997,2 55639  70.0006 318.3627 0003444 270.9200  89.1565 14.98335031 32217,6950.177,96.107,574.436,569.649,0.0
55639.0,STARLINK-5508,PAYLOAD,2023-09-12 10:27:18,14.98326284,0.0003044,70.0013,317.0159,260.817,99.2644,7.4267e-06,-4e-08,0.0,0 STARLINK-5508,1 55639U 23021M   23255.43563250 -.00000004  00000-0  74267-5 0  9997,2 55639  70.0013 317.0159 0003044 260.8170  99.2644 14.98326284 32299,6950.204,96.107,574.185,569.954,0.0
55639.0,STARLINK-5508,PAYLOAD,2023-09-12 13:39:34,14.9833227,0.0002917,70.0011,316.6794,271.1635,88.9189,6.213e-05,6.48e-06,0.0,0 STARLINK-5508,1 55639U 23021M   23255.56914808  .00000648  00000-0  62130-4 0  9998,2 55639  70.0011 316.6794 0002917 271.1635  88.9189 14.98332270 32613,6950.186,96.107,574.078,570.024,0.0
55639.0,STARLINK-5508,PAYLOAD,2023-09-13 13:41:34,14.98337136,0.0003338,70.0006,314.1552,267.1395,92.9382,8.4058e-05,9.1e-06,0.0,0 STARLINK-5508,1 55639U 23021M   23256.57053990  .00000910  00000-0  84058-4 0  9991,2 55639  70.0006 314.1552 0003338 267.1395  92.9382 14.98337136 32760,6950.171,96.107,574.356,569.716,0.0
55639.0,STARLINK-5508,PAYLOAD,2023-09-13 21:42:16,14.98323688,0.0003319,70.0009,313.3136,270.5647,89.5132,-8.1027e-05,-1.06e-05,0.0,0 STARLINK-5508,1 55639U 23021M   23256.90435297 -.00001060  00000-0 -81027-4 0  9994,2 55639  70.0009 313.3136 0003319 270.5647  89.5132 14.98323688 32817,6950.212,96.107,574.384,569.771,0.0
55639.0,STARLINK-5508,PAYLOAD,2023-09-14 10:31:21,14.98314086,0.0003409,70.0002,311.9669,268.6781,91.3988,-0.00016767,-2.092e-05,0.0,0 STARLINK-5508,1 55639U 23021M   23257.43844484 -.00002092  00000-0 -16767-3 0  9999,2 55639  70.0002 311.9669 0003409 268.6781  91.3988 14.98314086 32599,6950.242,96.108,574.476,569.738,0.0
55639.0,STARLINK-5508,PAYLOAD,2023-09-14 12:07:29,14.98314794,0.0003395,70.0003,311.7987,268.9256,91.1514,-0.00016009,-2.002e-05,0.0,0 STARLINK-5508,1 55639U 23021M   23257.50520481 -.00002002  00000-0 -16009-3 0  9995,2 55639  70.0003 311.7987 0003395 268.9256  91.1514 14.98314794 32909,6950.24,96.108,574.465,569.745,0.0
55639.0,STARLINK-5508,PAYLOAD,2023-09-14 13:43:37,14.98314729,0.0003251,70.0003,311.6305,266.4655,93.6132,-0.00015017,-1.884e-05,0.0,0 STARLINK-5508,1 55639U 23021M   23257.57196516 -.00001884  00000-0 -15017-3 0  9995,2 55639  70.0003 311.6305 0003251 266.4655  93.6132 14.98314729 32911,6950.24,96.108,574.365,569.846,0.0
55639.0,STARLINK-5508,PAYLOAD,2023-09-15 04:08:50,14.98323645,0.0003404,69.9995,310.1142,266.9752,93.1017,-0.00010018,-1.288e-05,0.0,0 STARLINK-5508,1 55639U 23021M   23258.17280147 -.00001288  00000-0 -10018-3 0  9990,2 55639  69.9995 310.1142 0003404 266.9752  93.1017 14.98323645 32705,6950.213,96.107,574.443,569.712,0.0
55639.0,STARLINK-5508,PAYLOAD,2023-09-15 13:45:38,14.98327085,0.0003391,69.9998,309.1054,267.967,92.11,-6.945e-05,-9.22e-06,0.0,0 STARLINK-5508,1 55639U 23021M   23258.57336028 -.00000922  00000-0 -69450-4 0  9993,2 55639  69.9998 309.1054 0003391 267.9670  92.1100 14.98327085 33067,6950.202,96.107,574.424,569.71,0.0
55639.0,STARLINK-5508,PAYLOAD,2023-09-15 20:10:10,14.98328965,0.0003259,70.0001,308.4328,265.1154,94.9632,-4.4706e-05,-6.26e-06,0.0,0 STARLINK-5508,1 55639U 23021M   23258.84039925 -.00000626  00000-0 -44706-4 0  9997,2 55639  70.0001 308.4328 0003259 265.1154  94.9632 14.98328965 32800,6950.196,96.107,574.326,569.796,0.0
55639.0,STARLINK-5508,PAYLOAD,2023-09-16 12:11:30,14.98325463,0.0003318,69.9997,306.7491,263.4012,96.6769,0.00021897,2.52e-05,0.0,0 STARLINK-5508,1 55639U 23021M   23259.50799669  .00002520  00000-0  21897-3 0  9997,2 55639  69.9997 306.7491 0003318 263.4012  96.6769 14.98325463 33208,6950.207,96.107,574.378,569.766,0.0
55639.0,STARLINK-5508,PAYLOAD,2023-09-16 20:12:11,14.98328407,0.0003324,69.9999,305.9075,268.7797,91.2982,0.00019871,2.279e-05,0.0,0 STARLINK-5508,1 55639U 23021M   23259.84179619  .00002279  00000-0  19871-3 0  9991,2 55639  69.9999 305.9075 0003324 268.7797  91.2982 14.98328407 32954,6950.198,96.107,574.373,569.753,0.0
55639.0,STARLINK-5508,PAYLOAD,2023-09-17 10:37:22,14.98343301,0.0003052,70.0004,304.3929,273.1508,86.9302,0.00021901,2.522e-05,0.0,0 STARLINK-5508,1 55639U 23021M   23260.44262537  .00002522  00000-0  21901-3 0  9999,2 55639  70.0004 304.3929 0003052 273.1508  86.9302 14.98343301 33041,6950.152,96.106,574.138,569.896,0.0
55639.0,STARLINK-5508,PAYLOAD,2023-09-17 12:13:30,14.98341177,0.0003263,69.9997,304.2239,269.8005,90.278,0.00017337,1.977e-05,0.0,0 STARLINK-5508,1 55639U 23021M   23260.50938645  .00001977  00000-0  17337-3 0  9997,2 55639  69.9997 304.2239 0003263 269.8005  90.2780 14.98341177 33351,6950.158,96.106,574.291,569.755,0.0
55639.0,STARLINK-5508,PAYLOAD,2023-09-18 02:38:44,14.98336533,0.0003172,70.0001,302.7094,267.9101,92.1695,-4.1408e-05,-5.87e-06,0.0,0 STARLINK-5508,1 55639U 23021M   23261.11023200 -.00000587  00000-0 -41408-4 0  9992,2 55639  70.0001 302.7094 0003172 267.9101  92.1695 14.98336533 33140,6950.173,96.107,574.242,569.833,0.0
55639.0,STARLINK-5508,PAYLOAD,2023-09-18 12:15:32,14.98332561,0.0003141,69.9997,301.6994,266.1941,93.8859,-6.2339e-05,-8.37e-06,0.0,0 STARLINK-5508,1 55639U 23021M   23261.51079334 -.00000837  00000-0 -62339-4 0  9999,2 55639  69.9997 301.6994 0003141 266.1941  93.8859 14.98332561 33504,6950.185,96.107,574.233,569.867,0.0
55639.0,STARLINK-5508,PAYLOAD,2023-09-18 20:16:12,14.98336087,0.0003401,69.999,300.8563,269.6546,90.4223,-6.1193e-05,-8.23e-06,0.0,0 STARLINK-5508,1 55639U 23021M   23261.84458919 -.00000823  00000-0 -61193-4 0  9997,2 55639  69.9990 300.8563 0003401 269.6546  90.4223 14.98336087 33558,6950.174,96.107,574.403,569.675,0.0
55639.0,STARLINK-5508,PAYLOAD,2023-09-19 10:41:24,14.98331179,0.0003472,69.9991,299.3416,273.1036,86.9725,0.00012502,1.399e-05,0.0,0 STARLINK-5508,1 55639U 23021M   23262.44542416  .00001399  00000-0  12502-3 0  9996,2 55639  69.9991 299.3416 0003472 273.1036  86.9725 14.98331179 33341,6950.189,96.107,574.467,569.641,0.0
55639.0,STARLINK-5508,PAYLOAD,2023-09-20 02:42:45,14.98326708,0.0002918,70.0004,297.6609,258.62,101.4632,-1.3449e-05,-2.53e-06,0.0,0 STARLINK-5508,1 55639U 23021M   23263.11302866 -.00000253  00000-0 -13449-4 0  9996,2 55639  70.0004 297.6609 0002918 258.6200 101.4632 14.98326708 33442,6950.203,96.107,574.096,570.04,0.0
55639.0,STARLINK-5508,PAYLOAD,2023-09-20 12:19:34,14.98320359,0.0002951,69.9997,296.6498,258.3969,101.6859,-7.0316e-05,-9.32e-06,0.0,0 STARLINK-5508,1 55639U 23021M   23263.51359567 -.00000932  00000-0 -70316-4 0  9990,2 55639  69.9997 296.6498 0002951 258.3969 101.6859 14.98320359 33507,6950.223,96.108,574.139,570.037,0.0
55639.0,STARLINK-5508,PAYLOAD,2023-09-21 02:44:46,14.98331984,0.0003529,69.9981,295.1332,270.7387,89.3368,-3.3322e-05,-4.91e-06,0.0,0 STARLINK-5508,1 55639U 23021M   23264.11442750 -.00000491  00000-0 -33322-4 0  9990,2 55639  69.9981 295.1332 0003529 270.7387  89.3368 14.98331984 33597,6950.187,96.107,574.504,569.599,0.0
55639.0,STARLINK-5508,PAYLOAD,2023-09-21 12:21:34,14.9833472,0.0003101,69.9987,294.1238,259.7221,100.3589,1.1256e-05,4.1e-07,0.0,0 STARLINK-5508,1 55639U 23021M   23264.51498379  .00000041  00000-0  11256-4 0  9993,2 55639  69.9987 294.1238 0003101 259.7221 100.3589 14.98334720 33957,6950.178,96.107,574.199,569.888,0.0
55639.0,STARLINK-5508,PAYLOAD,2023-09-22 04:22:55,14.98368176,0.0003136,69.9988,292.4403,268.7981,91.2818,-0.00060694,-7.335e-05,0.0,0 STARLINK-5508,1 55639U 23021M   23265.18258338 -.00007335  00000-0 -60694-3 0  9990,2 55639  69.9988 292.4403 0003136 268.7981  91.2818 14.98368176 33757,6950.075,96.105,574.119,569.76,0.0
55639.0,STARLINK-5508,PAYLOAD,2023-09-22 12:23:35,14.98357781,0.0003117,69.9988,291.5986,269.772,90.3081,-0.0004344,-5.276e-05,0.0,0 STARLINK-5508,1 55639U 23021M   23265.51637941 -.00005276  00000-0 -43440-3 0  9990,2 55639  69.9988 291.5986 0003117 269.7720  90.3081 14.98357781 34106,6950.107,96.105,574.138,569.806,0.0
55639.0,STARLINK-5508,PAYLOAD,2023-09-22 18:48:08,14.98323153,0.0003091,69.999,290.9254,272.6044,87.4761,0.00011827,1.318e-05,0.0,0 STARLINK-5508,1 55639U 23021M   23265.78342973  .00001318  00000-0  11827-3 0  9992,2 55639  69.9990 290.9254 0003091 272.6044  87.4761 14.98323153 34145,6950.214,96.107,574.227,569.931,0.0
55639.0,STARLINK-5508,PAYLOAD,2023-09-23 01:12:40,14.9833251,0.000323,69.9989,290.2519,268.019,92.0599,-9.0665e-06,-2.01e-06,0.0,0 STARLINK-5508,1 55639U 23021M   23266.05046609 -.00000201  00000-0 -90665-5 0  9991,2 55639  69.9989 290.2519 0003230 268.0190  92.0599 14.98332510 33884,6950.185,96.107,574.295,569.805,0.0
55639.0,STARLINK-5508,PAYLOAD,2023-09-23 10:49:28,14.98331639,0.0003256,69.9988,289.2419,267.7607,92.3179,-1.8487e-05,-3.14e-06,0.0,0 STARLINK-5508,1 55639U 23021M   23266.45102617 -.00000314  00000-0 -18487-4 0  9993,2 55639  69.9988 289.2419 0003256 267.7607  92.3179 14.98331639 34246,6950.188,96.107,574.316,569.79,0.0
55639.0,STARLINK-5508,PAYLOAD,2023-09-24 02:50:49,14.98328797,0.0003273,69.9987,287.5585,268.4261,91.6523,-2.5652e-05,-3.99e-06,0.0,0 STARLINK-5508,1 55639U 23021M   23267.11862772 -.00000399  00000-0 -25652-4 0  9997,2 55639  69.9987 287.5585 0003273 268.4261  91.6523 14.98328797 34047,6950.197,96.107,574.336,569.787,0.0
55639.0,STARLINK-5508,PAYLOAD,2023-09-24 10:51:29,14.98329104,0.0003294,69.9985,286.7166,268.8491,91.2291,-2.0343e-05,-3.36e-06,0.0,0 STARLINK-5508,1 55639U 23021M   23267.45242753 -.00000336  00000-0 -20343-4 0  9998,2 55639  69.9985 286.7166 0003294 268.8491  91.2291 14.98329104 34392,6950.196,96.107,574.35,569.771,0.0
